[
    {
        "Altitude(m)": 604983.0529398962,
        "Argument of Periapsis(deg)": 0.0,
        "Eccentricity": 0.0,
        "Inclination(deg)": 60.0,
        "Latitude(deg)": -0.09262345480263837,
        "Longitude(deg)": 15.083916549448974,
        "Mean Anomaly(deg)": -180.00000000000003,
        "RAAN(deg)": 295.00000000000006,
        "Satellite Name": "Test1 1309",
        "Satellite Number": 1309,
        "Semi-Major Axis(m)": 6980739.136638005,
        "Time(s)": 0
    },
    {
        "Altitude(m)": 605055.3322255842,
        "Argument of Periapsis(deg)": 0.00010418945913296404,
        "Eccentricity": 0.0,
        "Inclination(deg)": 60.0,
        "Latitude(deg)": -0.6330328941416606,
        "Longitude(deg)": 15.352042325875017,
        "Mean Anomaly(deg)": -179.37989385453818,
        "RAAN(deg)": 294.99957995086027,
        "Satellite Name": "Test1 1309",
        "Satellite Number": 1309,
        "Semi-Major Axis(m)": 6980739.136638005,
        "Time(s)": 10
    },
    {
        "Altitude(m)": 605130.8205661634,
        "Argument of Periapsis(deg)": 0.0002083789182659281,
        "Eccentricity": 0.0,
        "Inclination(deg)": 60.0,
        "Latitude(deg)": -1.1734114136233238,
        "Longitude(deg)": 15.620225737521631,
        "Mean Anomaly(deg)": -178.75978770907636,
        "RAAN(deg)": 294.99915990172053,
        "Satellite Name": "Test1 1309",
        "Satellite Number": 1309,
        "Semi-Major Axis(m)": 6980739.136638005,
        "Time(s)": 20
    },
    {
        "Altitude(m)": 605209.506998397,
        "Argument of Periapsis(deg)": 0.00031256837739889213,
        "Eccentricity": 0.0,
        "Inclination(deg)": 60.0,
        "Latitude(deg)": -1.7137419327268182,
        "Longitude(deg)": 15.888521172204955,
        "Mean Anomaly(deg)": -178.13968156361454,
        "RAAN(deg)": 294.9987398525808,
        "Satellite Name": "Test1 1309",
        "Satellite Number": 1309,
        "Semi-Major Axis(m)": 6980739.136638005,
        "Time(s)": 30
    },
    {
        "Altitude(m)": 605291.3790351063,
        "Argument of Periapsis(deg)": 0.0004167578365318562,
        "Eccentricity": 0.0,
        "Inclination(deg)": 60.0,
        "Latitude(deg)": -2.254007352879998,
        "Longitude(deg)": 16.15698358553083,
        "Mean Anomaly(deg)": -177.51957541815267,
        "RAAN(deg)": 294.99831980344106,
        "Satellite Name": "Test1 1309",
        "Satellite Number": 1309,
        "Semi-Major Axis(m)": 6980739.136638005,
        "Time(s)": 40
    },
    {
        "Altitude(m)": 605376.4226685303,
        "Argument of Periapsis(deg)": 0.0005209472956648203,
        "Eccentricity": 0.0,
        "Inclination(deg)": 60.0,
        "Latitude(deg)": -2.794190547549207,
        "Longitude(deg)": 16.42566752431533,
        "Mean Anomaly(deg)": -176.89946927269082,
        "RAAN(deg)": 294.99789975430133,
        "Satellite Name": "Test1 1309",
        "Satellite Number": 1309,
        "Semi-Major Axis(m)": 6980739.136638005,
        "Time(s)": 50
    },
    {
        "Altitude(m)": 605464.6223743696,
        "Argument of Periapsis(deg)": 0.0006251367547977843,
        "Eccentricity": 0.0,
        "Inclination(deg)": 60.0,
        "Latitude(deg)": -3.33427435228649,
        "Longitude(deg)": 16.694627662960855,
        "Mean Anomaly(deg)": -176.27936312722898,
        "RAAN(deg)": 294.99747970516154,
        "Satellite Name": "Test1 1309",
        "Satellite Number": 1309,
        "Semi-Major Axis(m)": 6980739.136638005,
        "Time(s)": 60
    },
    {
        "Altitude(m)": 605555.9611166054,
        "Argument of Periapsis(deg)": 0.0007293262139307483,
        "Eccentricity": 0.0,
        "Inclination(deg)": 60.0,
        "Latitude(deg)": -3.874241554723847,
        "Longitude(deg)": 16.963919339945566,
        "Mean Anomaly(deg)": -175.6592569817672,
        "RAAN(deg)": 294.99705965602186,
        "Satellite Name": "Test1 1309",
        "Satellite Number": 1309,
        "Semi-Major Axis(m)": 6980739.136638005,
        "Time(s)": 70
    },
    {
        "Altitude(m)": 605650.4203530771,
        "Argument of Periapsis(deg)": 0.0008335156730637124,
        "Eccentricity": 0.0,
        "Inclination(deg)": 60.0,
        "Latitude(deg)": -4.41407488450252,
        "Longitude(deg)": 17.233597581579662,
        "Mean Anomaly(deg)": -175.0391508363053,
        "RAAN(deg)": 294.9966396068821,
        "Satellite Name": "Test1 1309",
        "Satellite Number": 1309,
        "Semi-Major Axis(m)": 6980739.136638005,
        "Time(s)": 80
    },
    {
        "Altitude(m)": 605747.9800417686,
        "Argument of Periapsis(deg)": 0.0009377051321966765,
        "Eccentricity": 0.0,
        "Inclination(deg)": 60.0,
        "Latitude(deg)": -4.953757003119354,
        "Longitude(deg)": 17.50371763880484,
        "Mean Anomaly(deg)": -174.41904469084346,
        "RAAN(deg)": 294.99621955774234,
        "Satellite Name": "Test1 1309",
        "Satellite Number": 1309,
        "Semi-Major Axis(m)": 6980739.136638005,
        "Time(s)": 90
    },
    {
        "Altitude(m)": 605848.6186478552,
        "Argument of Periapsis(deg)": 0.0010418945913296407,
        "Eccentricity": 0.0,
        "Inclination(deg)": 60.0,
        "Latitude(deg)": -5.493270493679062,
        "Longitude(deg)": 17.77433552419289,
        "Mean Anomaly(deg)": -173.79893854538173,
        "RAAN(deg)": 294.99579950860254,
        "Satellite Name": "Test1 1309",
        "Satellite Number": 1309,
        "Semi-Major Axis(m)": 6980739.136638005,
        "Time(s)": 100
    },
    {
        "Altitude(m)": 605952.3131514889,
        "Argument of Periapsis(deg)": 0.0011460840504626045,
        "Eccentricity": 0.0,
        "Inclination(deg)": 60.0,
        "Latitude(deg)": -6.032597850541487,
        "Longitude(deg)": 18.045507036298567,
        "Mean Anomaly(deg)": -173.17883239991983,
        "RAAN(deg)": 294.99537945946287,
        "Satellite Name": "Test1 1309",
        "Satellite Number": 1309,
        "Semi-Major Axis(m)": 6980739.136638005,
        "Time(s)": 110
    },
    {
        "Altitude(m)": 606059.0390562835,
        "Argument of Periapsis(deg)": 0.0012502735095955685,
        "Eccentricity": 0.0,
        "Inclination(deg)": 60.0,
        "Latitude(deg)": -6.57172146884264,
        "Longitude(deg)": 18.31728829714148,
        "Mean Anomaly(deg)": -172.55872625445807,
        "RAAN(deg)": 294.9949594103231,
        "Satellite Name": "Test1 1309",
        "Satellite Number": 1309,
        "Semi-Major Axis(m)": 6980739.136638005,
        "Time(s)": 120
    },
    {
        "Altitude(m)": 606168.7703985829,
        "Argument of Periapsis(deg)": 0.0013544629687285324,
        "Eccentricity": 0.0,
        "Inclination(deg)": 60.0,
        "Latitude(deg)": -7.11062363388156,
        "Longitude(deg)": 18.589736289975182,
        "Mean Anomaly(deg)": -171.93862010899622,
        "RAAN(deg)": 294.99453936118334,
        "Satellite Name": "Test1 1309",
        "Satellite Number": 1309,
        "Semi-Major Axis(m)": 6980739.136638005,
        "Time(s)": 130
    },
    {
        "Altitude(m)": 606281.4797573815,
        "Argument of Periapsis(deg)": 0.0014586524278614966,
        "Eccentricity": 0.0,
        "Inclination(deg)": 60.0,
        "Latitude(deg)": -7.649286510357335,
        "Longitude(deg)": 18.86290788449656,
        "Mean Anomaly(deg)": -171.31851396353437,
        "RAAN(deg)": 294.9941193120436,
        "Satellite Name": "Test1 1309",
        "Satellite Number": 1309,
        "Semi-Major Axis(m)": 6980739.136638005,
        "Time(s)": 140
    },
    {
        "Altitude(m)": 606397.1382650161,
        "Argument of Periapsis(deg)": 0.0015628418869944607,
        "Eccentricity": 0.0,
        "Inclination(deg)": 60.0,
        "Latitude(deg)": -8.187692131439256,
        "Longitude(deg)": 19.136860375273283,
        "Mean Anomaly(deg)": -170.69840781807255,
        "RAAN(deg)": 294.9936992629039,
        "Satellite Name": "Test1 1309",
        "Satellite Number": 1309,
        "Semi-Major Axis(m)": 6980739.136638005,
        "Time(s)": 150
    },
    {
        "Altitude(m)": 606515.7156185319,
        "Argument of Periapsis(deg)": 0.0016670313461274247,
        "Eccentricity": 0.0,
        "Inclination(deg)": 60.0,
        "Latitude(deg)": -8.725822387656196,
        "Longitude(deg)": 19.41165202054397,
        "Mean Anomaly(deg)": -170.0783016726107,
        "RAAN(deg)": 294.99327921376414,
        "Satellite Name": "Test1 1309",
        "Satellite Number": 1309,
        "Semi-Major Axis(m)": 6980739.136638005,
        "Time(s)": 160
    },
    {
        "Altitude(m)": 606637.1800917863,
        "Argument of Periapsis(deg)": 0.0017712208052603888,
        "Eccentricity": 0.0,
        "Inclination(deg)": 60.0,
        "Latitude(deg)": -9.263659015593547,
        "Longitude(deg)": 19.687341068548097,
        "Mean Anomaly(deg)": -169.45819552714886,
        "RAAN(deg)": 294.9928591646244,
        "Satellite Name": "Test1 1309",
        "Satellite Number": 1309,
        "Semi-Major Axis(m)": 6980739.136638005,
        "Time(s)": 170
    },
    {
        "Altitude(m)": 606761.4985482014,
        "Argument of Periapsis(deg)": 0.001875410264393353,
        "Eccentricity": 0.0,
        "Inclination(deg)": 60.0,
        "Latitude(deg)": -9.801183586376405,
        "Longitude(deg)": 19.96398629716044,
        "Mean Anomaly(deg)": -168.8380893816871,
        "RAAN(deg)": 294.9924391154846,
        "Satellite Name": "Test1 1309",
        "Satellite Number": 1309,
        "Semi-Major Axis(m)": 6980739.136638005,
        "Time(s)": 180
    },
    {
        "Altitude(m)": 606888.6364542688,
        "Argument of Periapsis(deg)": 0.0019795997235263173,
        "Eccentricity": 0.0,
        "Inclination(deg)": 60.0,
        "Latitude(deg)": -10.338377493926803,
        "Longitude(deg)": 20.241647553987733,
        "Mean Anomaly(deg)": -168.2179832362252,
        "RAAN(deg)": 294.99201906634494,
        "Satellite Name": "Test1 1309",
        "Satellite Number": 1309,
        "Semi-Major Axis(m)": 6980739.136638005,
        "Time(s)": 190
    }
]